{"type": "FeatureCollection", "features": [ {"type": "Feature", "properties": {"norad_id": 67110, "name": "STARLINK-35781", "group": "last-30-days", "lat": 2.83195433301675, "lon": 59.30336001634285, "alt_km": 314.757013857482, "timestamp": "2025-12-24T20:42:19.749379+00:00", "meta": {"OBJECT_NAME": "STARLINK-35781", "OBJECT_ID": "2025-299J", "EPOCH": "2025-12-24T06:00:02.000160", "MEAN_MOTION": 15.8777123, "ECCENTRICITY": 0.00017791, "INCLINATION": 42.9975, "RA_OF_ASC_NODE": 246.1286, "ARG_OF_PERICENTER": 265.9388, "MEAN_ANOMALY": 5.9399, "EPHEMERIS_TYPE": 0, "CLASSIFICATION_TYPE": "U", "NORAD_CAT_ID": 67110, "ELEMENT_SET_NO": 999, "REV_AT_EPOCH": 261, "BSTAR": -0.0072873245, "MEAN_MOTION_DOT": -0.01753068, "MEAN_MOTION_DDOT": 0}, "tle": {"line1": "1 67110U 25299J   25358.25002315 -.01753068  00000+0 -72873-2 0  9993", "line2": "2 67110  42.9975 246.1286 0001779 265.9388   5.9399 15.87771230  2612"}}, "geometry": {"type": "Point", "coordinates": [59.30336001634285, 2.83195433301675]}}, {"type": "Feature", "properties": {"norad_id": 67111, "name": "STARLINK-35875", "group": "last-30-days", "lat": 4.006040560839864, "lon": 58.04076251790592, "alt_km": 314.7600477027054, "timestamp": "2025-12-24T20:42:19.749389+00:00", "meta": {"OBJECT_NAME": "STARLINK-35875", "OBJECT_ID": "2025-299K", "EPOCH": "2025-12-24T06:00:02.000160", "MEAN_MOTION": 15.87759629, "ECCENTRICITY": 0.00018258, "INCLINATION": 42.9976, "RA_OF_ASC_NODE": 246.1332, "ARG_OF_PERICENTER": 268.6171, "MEAN_ANOMALY": 1.5568, "EPHEMERIS_TYPE": 0, "CLASSIFICATION_TYPE": "U", "NORAD_CAT_ID": 67111, "ELEMENT_SET_NO": 999, "REV_AT_EPOCH": 255, "BSTAR": -0.0072763448, "MEAN_MOTION_DOT": -0.01749968, "MEAN_MOTION_DDOT": 0}, "tle": {"line1": "1 67111U 25299K   25358.25002315 -.01749968  00000+0 -72763-2 0  9996", "line2": "2 67111  42.9976 246.1332 0001825 268.6171   1.5568 15.87759629  2559"}}, "geometry": {"type": "Point", "coordinates": [58.04076251790592, 4.006040560839864]}}, {"type": "Feature", "properties": {"norad_id": 67112, "name": "STARLINK-35906", "group": "last-30-days", "lat": 1.8376444370555605, "lon": 60.369989504376605, "alt_km": 314.87271134924595, "timestamp": "2025-12-24T20:42:19.749401+00:00", "meta": {"OBJECT_NAME": "STARLINK-35906", "OBJECT_ID": "2025-299L", "EPOCH": "2025-12-24T06:00:02.000160", "MEAN_MOTION": 15.87778531, "ECCENTRICITY": 0.00018103, "INCLINATION": 42.9975, "RA_OF_ASC_NODE": 246.1253, "ARG_OF_PERICENTER": 267.6483, "MEAN_ANOMALY": 5.6676, "EPHEMERIS_TYPE": 0, "CLASSIFICATION_TYPE": "U", "NORAD_CAT_ID": 67112, "ELEMENT_SET_NO": 999, "REV_AT_EPOCH": 255, "BSTAR": -0.007265499, "MEAN_MOTION_DOT": -0.01749141, "MEAN_MOTION_DDOT": 0}, "tle": {"line1": "1 67112U 25299L   25358.25002315 -.01749141  00000+0 -72655-2 0  9990", "line2": "2 67112  42.9975 246.1253 0001810 267.6483   5.6676 15.87778531  2558"}}, "geometry": {"type": "Point", "coordinates": [60.369989504376605, 1.8376444370555605]}}, {"type": "Feature", "properties": {"norad_id": 67113, "name": "STARLINK-35789", "group": "last-30-days", "lat": 0.7738929064427724, "lon": 61.50838890628513, "alt_km": 314.81383130537324, "timestamp": "2025-12-24T20:42:19.749411+00:00", "meta": {"OBJECT_NAME": "STARLINK-35789", "OBJECT_ID": "2025-299M", "EPOCH": "2025-12-24T06:00:02.000160", "MEAN_MOTION": 15.87792278, "ECCENTRICITY": 0.00017484, "INCLINATION": 42.9975, "RA_OF_ASC_NODE": 246.1211, "ARG_OF_PERICENTER": 263.8906, "MEAN_ANOMALY": 10.96, "EPHEMERIS_TYPE": 0, "CLASSIFICATION_TYPE": "U", "NORAD_CAT_ID": 67113, "ELEMENT_SET_NO": 999, "REV_AT_EPOCH": 255, "BSTAR": -0.0072750884, "MEAN_MOTION_DOT": -0.01752103, "MEAN_MOTION_DDOT": 0}, "tle": {"line1": "1 67113U 25299M   25358.25002315 -.01752103  00000+0 -72751-2 0  9990", "line2": "2 67113  42.9975 246.1211 0001748 263.8906  10.9600 15.87792278  2551"}}, "geometry": {"type": "Point", "coordinates": [61.50838890628513, 0.7738929064427724]}}, {"type": "Feature", "properties": {"norad_id": 67114, "name": "STARLINK-36180", "group": "last-30-days", "lat": -0.4667610838090051, "lon": 62.83570863845021, "alt_km": 315.0227838634155, "timestamp": "2025-12-24T20:42:19.749421+00:00", "meta": {"OBJECT_NAME": "STARLINK-36180", "OBJECT_ID": "2025-299N", "EPOCH": "2025-12-24T06:00:02.000160", "MEAN_MOTION": 15.87795685, "ECCENTRICITY": 0.00017353, "INCLINATION": 42.9976, "RA_OF_ASC_NODE": 246.1168, "ARG_OF_PERICENTER": 267.0202, "MEAN_ANOMALY": 9.6428, "EPHEMERIS_TYPE": 0, "CLASSIFICATION_TYPE": "U", "NORAD_CAT_ID": 67114, "ELEMENT_SET_NO": 999, "REV_AT_EPOCH": 266, "BSTAR": -0.0072748259, "MEAN_MOTION_DOT": -0.01752293, "MEAN_MOTION_DDOT": 0}, "tle": {"line1": "1 67114U 25299N   25358.25002315 -.01752293  00000+0 -72748-2 0  9997", "line2": "2 67114  42.9976 246.1168 0001735 267.0202   9.6428 15.87795685  2665"}}, "geometry": {"type": "Point", "coordinates": [62.83570863845021, -0.4667610838090051]}}, {"type": "Feature", "properties": {"norad_id": 67115, "name": "STARLINK-35892", "group": "last-30-days", "lat": -1.5444187728692305, "lon": 63.988961822742326, "alt_km": 315.03331322455415, "timestamp": "2025-12-24T20:42:19.749430+00:00", "meta": {"OBJECT_NAME": "STARLINK-35892", "OBJECT_ID": "2025-299P", "EPOCH": "2025-12-24T06:00:02.000160", "MEAN_MOTION": 15.87808404, "ECCENTRICITY": 0.00018033, "INCLINATION": 42.9976, "RA_OF_ASC_NODE": 246.1129, "ARG_OF_PERICENTER": 265.3393, "MEAN_ANOMALY": 12.882, "EPHEMERIS_TYPE": 0, "CLASSIFICATION_TYPE": "U", "NORAD_CAT_ID": 67115, "ELEMENT_SET_NO": 999, "REV_AT_EPOCH": 255, "BSTAR": -0.0072832526, "MEAN_MOTION_DOT": -0.0175508, "MEAN_MOTION_DDOT": 0}, "tle": {"line1": "1 67115U 25299P   25358.25002315 -.01755080  00000+0 -72833-2 0  9990", "line2": "2 67115  42.9976 246.1129 0001803 265.3393  12.8820 15.87808404  2555"}}, "geometry": {"type": "Point", "coordinates": [63.988961822742326, -1.5444187728692305]}}, {"type": "Feature", "properties": {"norad_id": 67116, "name": "STARLINK-35738", "group": "last-30-days", "lat": -2.8226051638642637, "lon": 65.35928581181084, "alt_km": 315.17025784960606, "timestamp": "2025-12-24T20:42:19.749440+00:00", "meta": {"OBJECT_NAME": "STARLINK-35738", "OBJECT_ID": "2025-299Q", "EPOCH": "2025-12-24T06:00:02.000160", "MEAN_MOTION": 15.8781266, "ECCENTRICITY": 0.00017636, "INCLINATION": 42.9976, "RA_OF_ASC_NODE": 246.1082, "ARG_OF_PERICENTER": 266.5478, "MEAN_ANOMALY": 13.5393, "EPHEMERIS_TYPE": 0, "CLASSIFICATION_TYPE": "U", "NORAD_CAT_ID": 67116, "ELEMENT_SET_NO": 999, "REV_AT_EPOCH": 255, "BSTAR": -0.0072794145, "MEAN_MOTION_DOT": -0.01754566, "MEAN_MOTION_DDOT": 0}, "tle": {"line1": "1 67116U 25299Q   25358.25002315 -.01754566  00000+0 -72794-2 0  9995", "line2": "2 67116  42.9976 246.1082 0001763 266.5478  13.5393 15.87812660  2558"}}, "geometry": {"type": "Point", "coordinates": [65.35928581181084, -2.8226051638642637]}}, {"type": "Feature", "properties": {"norad_id": 67117, "name": "STARLINK-35674", "group": "last-30-days", "lat": -3.9760134227541863, "lon": 66.59989148223809, "alt_km": 315.17628435203915, "timestamp": "2025-12-24T20:42:19.749468+00:00", "meta": {"OBJECT_NAME": "STARLINK-35674", "OBJECT_ID": "2025-299R", "EPOCH": "2025-12-24T06:00:02.000160", "MEAN_MOTION": 15.87815831, "ECCENTRICITY": 0.00017669, "INCLINATION": 42.9978, "RA_OF_ASC_NODE": 246.104, "ARG_OF_PERICENTER": 264.79, "MEAN_ANOMALY": 16.9775, "EPHEMERIS_TYPE": 0, "CLASSIFICATION_TYPE": "U", "NORAD_CAT_ID": 67117, "ELEMENT_SET_NO": 999, "REV_AT_EPOCH": 245, "BSTAR": -0.0072554998, "MEAN_MOTION_DOT": -0.01749854, "MEAN_MOTION_DDOT": 0}, "tle": {"line1": "1 67117U 25299R   25358.25002315 -.01749854  00000+0 -72555-2 0  9995", "line2": "2 67117  42.9978 246.1040 0001766 264.7900  16.9775 15.87815831  2451"}}, "geometry": {"type": "Point", "coordinates": [66.59989148223809, -3.9760134227541863]}}, {"type": "Feature", "properties": {"norad_id": 67118, "name": "STARLINK-35701", "group": "last-30-days", "lat": -5.155597015253776, "lon": 67.87430863244748, "alt_km": 315.39549845307556, "timestamp": "2025-12-24T20:42:19.749480+00:00", "meta": {"OBJECT_NAME": "STARLINK-35701", "OBJECT_ID": "2025-299S", "EPOCH": "2025-12-24T06:00:02.000160", "MEAN_MOTION": 15.87824039, "ECCENTRICITY": 0.00018034, "INCLINATION": 42.9977, "RA_OF_ASC_NODE": 246.0996, "ARG_OF_PERICENTER": 268.7409, "MEAN_ANOMALY": 14.7524, "EPHEMERIS_TYPE": 0, "CLASSIFICATION_TYPE": "U", "NORAD_CAT_ID": 67118, "ELEMENT_SET_NO": 999, "REV_AT_EPOCH": 261, "BSTAR": -0.0072710842, "MEAN_MOTION_DOT": -0.01753749, "MEAN_MOTION_DDOT": 0}, "tle": {"line1": "1 67118U 25299S   25358.25002315 -.01753749  00000+0 -72711-2 0  9998", "line2": "2 67118  42.9977 246.0996 0001803 268.7409  14.7524 15.87824039  2616"}}, "geometry": {"type": "Point", "coordinates": [67.87430863244748, -5.155597015253776]}}, {"type": "Feature", "properties": {"norad_id": 67119, "name": "STARLINK-36179", "group": "last-30-days", "lat": -7.028606891107199, "lon": 69.91396457731177, "alt_km": 315.447933738139, "timestamp": "2025-12-24T20:42:19.749490+00:00", "meta": {"OBJECT_NAME": "STARLINK-36179", "OBJECT_ID": "2025-299T", "EPOCH": "2025-12-24T06:00:02.000160", "MEAN_MOTION": 15.87847946, "ECCENTRICITY": 0.00017732, "INCLINATION": 42.9974, "RA_OF_ASC_NODE": 246.0925, "ARG_OF_PERICENTER": 269.4181, "MEAN_ANOMALY": 16.769, "EPHEMERIS_TYPE": 0, "CLASSIFICATION_TYPE": "U", "NORAD_CAT_ID": 67119, "ELEMENT_SET_NO": 999, "REV_AT_EPOCH": 266, "BSTAR": -0.0072079816, "MEAN_MOTION_DOT": -0.01742426, "MEAN_MOTION_DDOT": 0}, "tle": {"line1": "1 67119U 25299T   25358.25002315 -.01742426  00000+0 -72080-2 0  9998", "line2": "2 67119  42.9974 246.0925 0001773 269.4181  16.7690 15.87847946  2660"}}, "geometry": {"type": "Point", "coordinates": [69.91396457731177, -7.028606891107199]}}]}